[
  {
    "PersonId": "caf3feb5-730e-40a3-9610-404a17b0deba",
    "Type": 2,
    "PostalCode": 32921,
    "Street": "Welch",
    "HouseNumber": "7",
    "City": "Tawun"
  },
  {
    "PersonId": "caf3feb5-730e-40a3-9610-404a17b0deba",
    "Type": 1,
    "PostalCode": 50188,
    "Street": "Vahlen",
    "HouseNumber": "844",
    "City": "Azteca"
  },
  {
    "PersonId": "ccde24c0-33e4-4cad-b68b-ac457aef74de",
    "Type": 2,
    "PostalCode": 47291,
    "Street": "Jay",
    "HouseNumber": "29",
    "City": "Sallanches"
  },
  {
    "PersonId": "ccde24c0-33e4-4cad-b68b-ac457aef74de",
    "Type": 1,
    "PostalCode": 27869,
    "Street": "Nevada",
    "HouseNumber": "97902",
    "City": "Nkandla"
  },
  {
    "PersonId": "2a580a65-a4a0-458b-9034-acf100ad33c8",
    "Type": 1,
    "PostalCode": 61079,
    "Street": "Twin Pines",
    "HouseNumber": "08240",
    "City": "Quisqueya"
  },
  {
    "PersonId": "2a580a65-a4a0-458b-9034-acf100ad33c8",
    "Type": 2,
    "PostalCode": 42537,
    "Street": "Evergreen",
    "HouseNumber": "4",
    "City": "Yaring"
  },
  {
    "PersonId": "ce121dc0-d629-4f4b-9d34-0a5f3fc37674",
    "Type": 1,
    "PostalCode": 29227,
    "Street": "Lawn",
    "HouseNumber": "41",
    "City": "Kalamáta"
  },
  {
    "PersonId": "ce121dc0-d629-4f4b-9d34-0a5f3fc37674",
    "Type": 2,
    "PostalCode": 73318,
    "Street": "Marquette",
    "HouseNumber": "0252",
    "City": "Kalangsari"
  },
  {
    "PersonId": "f5a97d89-096c-4d0f-a4c4-c2fc2921a176",
    "Type": 2,
    "PostalCode": 48672,
    "Street": "Artisan",
    "HouseNumber": "27598",
    "City": "Wien"
  },
  {
    "PersonId": "f5a97d89-096c-4d0f-a4c4-c2fc2921a176",
    "Type": 1,
    "PostalCode": 83332,
    "Street": "Bashford",
    "HouseNumber": "97698",
    "City": "Trpinja"
  },
  {
    "Type": 1,
    "PostalCode": 71917,
    "Street": "Acker",
    "HouseNumber": "07202",
    "City": "Xihe"
  },
  {
    "Type": 2,
    "PostalCode": 86700,
    "Street": "Surrey",
    "HouseNumber": "6530",
    "City": "Chandra"
  },
  {
    "Type": 1,
    "PostalCode": 57747,
    "Street": "Forest Dale",
    "HouseNumber": "63456",
    "City": "Bảo Lộc"
  },
  {
    "Type": 2,
    "PostalCode": 73880,
    "Street": "Vera",
    "HouseNumber": "023",
    "City": "Singapore"
  },
  {
    "Type": 1,
    "PostalCode": 36619,
    "Street": "Northridge",
    "HouseNumber": "1",
    "City": "Quebrada Canoa"
  },
  {
    "Type": 1,
    "PostalCode": 79787,
    "Street": "Carey",
    "HouseNumber": "2708",
    "City": "Iowa City"
  },
  {
    "Type": 1,
    "PostalCode": 61406,
    "Street": "Autumn Leaf",
    "HouseNumber": "770",
    "City": "Calizo"
  },
  {
    "Type": 2,
    "PostalCode": 63647,
    "Street": "Tony",
    "HouseNumber": "92622",
    "City": "Zhenjiang"
  },
  {
    "Type": 2,
    "PostalCode": 45594,
    "Street": "Warner",
    "HouseNumber": "8",
    "City": "Domaniewice"
  },
  {
    "Type": 2,
    "PostalCode": 81155,
    "Street": "Corry",
    "HouseNumber": "1301",
    "City": "Sundsvall"
  }
  //  {
  //    "PersonId": "caf3feb5-730e-40a3-9610-404a17b0deba",
  //    "Type": 2,
  //    "PostalCode": 32921,
  //    "Street": "Welch",
  //    "HouseNumber": "7",
  //    "City": "Tawun"
  //  },
  //  {
  //    "PersonId": "ccde24c0-33e4-4cad-b68b-ac457aef74de",
  //    "Type": 1,
  //    "PostalCode": 50188,
  //    "Street": "Vahlen",
  //    "HouseNumber": "844",
  //    "City": "Azteca"
  //  },
  //  {
  //    "PersonId": "2a580a65-a4a0-458b-9034-acf100ad33c8",
  //    "Type": 2,
  //    "PostalCode": 47291,
  //    "Street": "Jay",
  //    "HouseNumber": "29",
  //    "City": "Sallanches"
  //  },
  //  {
  //    "PersonId": "ce121dc0-d629-4f4b-9d34-0a5f3fc37674",
  //    "Type": 1,
  //    "PostalCode": 27869,
  //    "Street": "Nevada",
  //    "HouseNumber": "97902",
  //    "City": "Nkandla"
  //  },
  //  {
  //    "PersonId": "f5a97d89-096c-4d0f-a4c4-c2fc2921a176",
  //    "Type": 1,
  //    "PostalCode": 61079,
  //    "Street": "Twin Pines",
  //    "HouseNumber": "08240",
  //    "City": "Quisqueya"
  //  },
  //  {
  //    "PersonId": "2211dee3-f2f1-40d5-8fac-91c53a637705",
  //    "Type": 2,
  //    "PostalCode": 42537,
  //    "Street": "Evergreen",
  //    "HouseNumber": "4",
  //    "City": "Yaring"
  //  },
  //  {
  //    "PersonId": "749e8524-749f-42aa-b9de-317be58990a9",
  //    "Type": 1,
  //    "PostalCode": 29227,
  //    "Street": "Lawn",
  //    "HouseNumber": "41",
  //    "City": "Kalamáta"
  //  },
  //  {
  //    "PersonId": "7ed86e7e-ec18-4717-9811-920b65422eb9",
  //    "Type": 1,
  //    "PostalCode": 73318,
  //    "Street": "Marquette",
  //    "HouseNumber": "0252",
  //    "City": "Kalangsari"
  //  },
  //  {
  //    "PersonId": "1a9bc8ac-5039-417f-bc30-b7a79f7d5300",
  //    "Type": 2,
  //    "PostalCode": 48672,
  //    "Street": "Artisan",
  //    "HouseNumber": "27598",
  //    "City": "Wien"
  //  },
  //  {
  //    "PersonId": "2a598367-3d7f-4c96-9d67-e3198f1ed6af",
  //    "Type": 1,
  //    "PostalCode": 83332,
  //    "Street": "Bashford",
  //    "HouseNumber": "97698",
  //    "City": "Trpinja"
  //  },
  //  {
  //    "PersonId": "55e0413d-0a25-4273-a267-eff06d447038",
  //    "Type": 1,
  //    "PostalCode": 71917,
  //    "Street": "Acker",
  //    "HouseNumber": "07202",
  //    "City": "Xihe"
  //  },
  //  {
  //    "PersonId": "eefa8c0e-51a9-402f-a864-2c367b79cc40",
  //    "Type": 2,
  //    "PostalCode": 86700,
  //    "Street": "Surrey",
  //    "HouseNumber": "6530",
  //    "City": "Chandra"
  //  },
  //  {
  //    "PersonId": "ab3a07fc-fb43-485b-85f3-8a8b51eb2268",
  //    "Type": 1,
  //    "PostalCode": 57747,
  //    "Street": "Forest Dale",
  //    "HouseNumber": "63456",
  //    "City": "Bảo Lộc"
  //  },
  //  {
  //    "PersonId": "971d713e-ff20-4006-babc-8f5a0fc541a6",
  //    "Type": 2,
  //    "PostalCode": 73880,
  //    "Street": "Vera",
  //    "HouseNumber": "023",
  //    "City": "Singapore"
  //  },
  //  {
  //    "PersonId": "ec1313af-e98c-40cb-9b05-ba359ba42796",
  //    "Type": 1,
  //    "PostalCode": 36619,
  //    "Street": "Northridge",
  //    "HouseNumber": "1",
  //    "City": "Quebrada Canoa"
  //  },
  //  {
  //    "PersonId": "a8cd964f-1c00-4882-8f13-384053ec9286",
  //    "Type": 1,
  //    "PostalCode": 79787,
  //    "Street": "Carey",
  //    "HouseNumber": "2708",
  //    "City": "Iowa City"
  //  },
  //  {
  //    "PersonId": "d9ee5605-035d-4da0-b945-6021227cec0a",
  //    "Type": 1,
  //    "PostalCode": 61406,
  //    "Street": "Autumn Leaf",
  //    "HouseNumber": "770",
  //    "City": "Calizo"
  //  },
  //  {
  //    "PersonId": "8c00a381-1904-4bab-a731-26e263166e09",
  //    "Type": 2,
  //    "PostalCode": 63647,
  //    "Street": "Tony",
  //    "HouseNumber": "92622",
  //    "City": "Zhenjiang"
  //  },
  //  {
  //    "PersonId": "0de5f93f-6f21-43d2-ab95-25464e27b637",
  //    "Type": 2,
  //    "PostalCode": 45594,
  //    "Street": "Warner",
  //    "HouseNumber": "8",
  //    "City": "Domaniewice"
  //  },
  //  {
  //    "PersonId": "60766ed1-80ff-4ea0-828f-ab2f48e72119",
  //    "Type": 2,
  //    "PostalCode": 81155,
  //    "Street": "Corry",
  //    "HouseNumber": "1301",
  //    "City": "Sundsvall"
  //  },
  //  {
  //    "PersonId": "01556af1-1717-4a69-b4db-686adc76a92e",
  //    "Type": 2,
  //    "PostalCode": 19654,
  //    "Street": "5th",
  //    "HouseNumber": "2071",
  //    "City": "Tiexi"
  //  },
  //  {
  //    "PersonId": "16255341-d12a-4c01-9f7f-d6db186a052a",
  //    "Type": 2,
  //    "PostalCode": 33228,
  //    "Street": "Onsgard",
  //    "HouseNumber": "222",
  //    "City": "Gjirokastër"
  //  },
  //  {
  //    "PersonId": "75a45e35-5996-4483-8a34-a37888bd35e7",
  //    "Type": 1,
  //    "PostalCode": 87892,
  //    "Street": "La Follette",
  //    "HouseNumber": "43",
  //    "City": "Chenggang"
  //  },
  //  {
  //    "PersonId": "60cdd5ab-f4ec-4890-a1de-c09f08b3f5f9",
  //    "Type": 1,
  //    "PostalCode": 88392,
  //    "Street": "Bonner",
  //    "HouseNumber": "0",
  //    "City": "Pederneiras"
  //  },
  //  {
  //    "PersonId": "e99c0a45-dd38-4dc7-b938-3f6213812df5",
  //    "Type": 2,
  //    "PostalCode": 75011,
  //    "Street": "Tennyson",
  //    "HouseNumber": "8579",
  //    "City": "Lianghu"
  //  },
  //  {
  //    "PersonId": "2e094c55-ad27-4eea-8814-8590143d6647",
  //    "Type": 2,
  //    "PostalCode": 77614,
  //    "Street": "Jackson",
  //    "HouseNumber": "5727",
  //    "City": "Norak"
  //  },
  //  {
  //    "PersonId": "1ad089ce-0212-4cd2-aa39-70d54fb86cf2",
  //    "Type": 2,
  //    "PostalCode": 85949,
  //    "Street": "Canary",
  //    "HouseNumber": "71",
  //    "City": "Brčko"
  //  },
  //  {
  //    "PersonId": "c2ff4308-0e5a-4216-80c6-96c7a93727ba",
  //    "Type": 2,
  //    "PostalCode": 33722,
  //    "Street": "Pleasure",
  //    "HouseNumber": "25578",
  //    "City": "Pinhal General"
  //  },
  //  {
  //    "PersonId": "27d45f4e-9e9c-4daa-954c-f7925a92b4b4",
  //    "Type": 1,
  //    "PostalCode": 51986,
  //    "Street": "Eagle Crest",
  //    "HouseNumber": "9",
  //    "City": "Goyang-si"
  //  },
  //  {
  //    "PersonId": "04572a97-a453-48c6-b267-f8c47f92ba43",
  //    "Type": 1,
  //    "PostalCode": 52591,
  //    "Street": "Chive",
  //    "HouseNumber": "4",
  //    "City": "Shuidong"
  //  },
  //  {
  //    "PersonId": "63281110-3191-4f7d-af50-20563d79d085",
  //    "Type": 2,
  //    "PostalCode": 32005,
  //    "Street": "Hollow Ridge",
  //    "HouseNumber": "8965",
  //    "City": "Essang"
  //  },
  //  {
  //    "PersonId": "11a1c434-8010-49e0-af15-0f1b530c6851",
  //    "Type": 2,
  //    "PostalCode": 64068,
  //    "Street": "Nelson",
  //    "HouseNumber": "0",
  //    "City": "Jianggang"
  //  },
  //  {
  //    "PersonId": "30b435ea-678c-4bff-ab0e-e4afb587bb25",
  //    "Type": 1,
  //    "PostalCode": 21709,
  //    "Street": "6th",
  //    "HouseNumber": "9",
  //    "City": "Cañas"
  //  },
  //  {
  //    "PersonId": "b4c18e41-b72f-4b6b-8053-6966b732e366",
  //    "Type": 1,
  //    "PostalCode": 21678,
  //    "Street": "Briar Crest",
  //    "HouseNumber": "29",
  //    "City": "Kurbnesh"
  //  },
  //  {
  //    "PersonId": "1f95a067-2d6d-47a5-99ef-2d879390c47a",
  //    "Type": 2,
  //    "PostalCode": 23772,
  //    "Street": "Marcy",
  //    "HouseNumber": "73404",
  //    "City": "Golek"
  //  },
  //  {
  //    "PersonId": "9519b251-d1e8-4467-b5a1-8b56c07fd8c7",
  //    "Type": 1,
  //    "PostalCode": 77531,
  //    "Street": "Nelson",
  //    "HouseNumber": "21",
  //    "City": "Ignacio Zaragoza"
  //  },
  //  {
  //    "PersonId": "f51b1e11-eb58-439a-8b0c-4ee849f3b217",
  //    "Type": 2,
  //    "PostalCode": 27222,
  //    "Street": "Cody",
  //    "HouseNumber": "52",
  //    "City": "Wahang Dua"
  //  },
  //  {
  //    "PersonId": "1f7fd9dd-abd8-4510-856c-33d8e0694b30",
  //    "Type": 1,
  //    "PostalCode": 92997,
  //    "Street": "Delladonna",
  //    "HouseNumber": "7",
  //    "City": "Khelyulya"
  //  },
  //  {
  //    "PersonId": "c260b798-9a4f-48b9-8d69-55997f26fb3d",
  //    "Type": 1,
  //    "PostalCode": 32743,
  //    "Street": "Huxley",
  //    "HouseNumber": "88",
  //    "City": "Terjan"
  //  },
  //  {
  //    "PersonId": "cf8f7e19-146b-4900-a14d-17af541ac806",
  //    "Type": 1,
  //    "PostalCode": 15649,
  //    "Street": "Delladonna",
  //    "HouseNumber": "6238",
  //    "City": "Goodlands"
  //  },
  //  {
  //    "PersonId": "b7948fd9-4f6a-4253-982c-ac7251e3a43f",
  //    "Type": 2,
  //    "PostalCode": 29601,
  //    "Street": "John Wall",
  //    "HouseNumber": "0597",
  //    "City": "Santarém"
  //  },
  //  {
  //    "PersonId": "880359cf-7c0c-409f-a2fb-4568108f096e",
  //    "Type": 2,
  //    "PostalCode": 71484,
  //    "Street": "Prentice",
  //    "HouseNumber": "953",
  //    "City": "Mawza‘"
  //  },
  //  {
  //    "PersonId": "a5b91742-ebe1-44bf-9fb9-2b6216051e9a",
  //    "Type": 1,
  //    "PostalCode": 70491,
  //    "Street": "Rockefeller",
  //    "HouseNumber": "2175",
  //    "City": "Acolla"
  //  },
  //  {
  //    "PersonId": "495ea0ab-44d8-41a0-9970-09c5d0839183",
  //    "Type": 2,
  //    "PostalCode": 31463,
  //    "Street": "Duke",
  //    "HouseNumber": "3528",
  //    "City": "Tarata"
  //  },
  //  {
  //    "PersonId": "9e72be2f-b29c-44f1-b5fc-6b5aec28f8a3",
  //    "Type": 1,
  //    "PostalCode": 70250,
  //    "Street": "Rieder",
  //    "HouseNumber": "37805",
  //    "City": "Kojagete"
  //  },
  //  {
  //    "PersonId": "4159b85e-245b-4a77-9384-3dcec185017d",
  //    "Type": 1,
  //    "PostalCode": 37953,
  //    "Street": "Namekagon",
  //    "HouseNumber": "80",
  //    "City": "Cigintung"
  //  },
  //  {
  //    "PersonId": "71bdce02-da1b-471c-86d3-ffe856a5f14c",
  //    "Type": 1,
  //    "PostalCode": 12739,
  //    "Street": "Pond",
  //    "HouseNumber": "431",
  //    "City": "Aţ Ţīrah"
  //  },
  //  {
  //    "PersonId": "27be6a10-0805-432a-9a4d-aca0161e2e87",
  //    "Type": 1,
  //    "PostalCode": 83620,
  //    "Street": "Gale",
  //    "HouseNumber": "8142",
  //    "City": "Akouda"
  //  },
  //  {
  //    "PersonId": "1038f548-7724-4df4-9cf2-4fd80bb13132",
  //    "Type": 1,
  //    "PostalCode": 26303,
  //    "Street": "Trailsway",
  //    "HouseNumber": "7",
  //    "City": "Paraiso"
  //  },
  //  {
  //    "PersonId": "a8df4d66-ec1e-4ba7-a11a-4a1b4ea4969d",
  //    "Type": 1,
  //    "PostalCode": 43641,
  //    "Street": "Michigan",
  //    "HouseNumber": "32542",
  //    "City": "Shuyuan"
  //  },
  //  {
  //    "PersonId": "5f491b48-d4f1-48b9-b27d-bf83f9e38a7a",
  //    "Type": 1,
  //    "PostalCode": 58837,
  //    "Street": "Spohn",
  //    "HouseNumber": "1693",
  //    "City": "Strasbourg"
  //  },
  //  {
  //    "PersonId": "0c03bd6d-0862-460b-8556-5a4c8dbffc98",
  //    "Type": 2,
  //    "PostalCode": 15822,
  //    "Street": "Melby",
  //    "HouseNumber": "2",
  //    "City": "Cullhuas"
  //  },
  //  {
  //    "PersonId": "b5652472-b453-454f-bdda-ac252b2a3d40",
  //    "Type": 1,
  //    "PostalCode": 58138,
  //    "Street": "Westridge",
  //    "HouseNumber": "4",
  //    "City": "Lazaro Cardenas"
  //  },
  //  {
  //    "PersonId": "94fc6899-a8a8-4930-b7cd-a984461619b0",
  //    "Type": 1,
  //    "PostalCode": 66231,
  //    "Street": "Armistice",
  //    "HouseNumber": "87133",
  //    "City": "Pompéu"
  //  },
  //  {
  //    "PersonId": "5150ad63-57fe-4459-89a6-452a9449e688",
  //    "Type": 2,
  //    "PostalCode": 31508,
  //    "Street": "Texas",
  //    "HouseNumber": "35299",
  //    "City": "Shantoudian"
  //  },
  //  {
  //    "PersonId": "3b94580c-833a-45e1-97db-064d170ad437",
  //    "Type": 2,
  //    "PostalCode": 12817,
  //    "Street": "Huxley",
  //    "HouseNumber": "7",
  //    "City": "Pingtan"
  //  },
  //  {
  //    "PersonId": "a5748d83-fa57-414a-8245-ec5940a7ebdf",
  //    "Type": 1,
  //    "PostalCode": 40177,
  //    "Street": "Sullivan",
  //    "HouseNumber": "5",
  //    "City": "Farah"
  //  },
  //  {
  //    "PersonId": "d68fed06-b1fe-47e2-b226-009a84c4f154",
  //    "Type": 1,
  //    "PostalCode": 49427,
  //    "Street": "Banding",
  //    "HouseNumber": "39",
  //    "City": "Bulu"
  //  },
  //  {
  //    "PersonId": "df365a3f-8bc8-43b5-8e1b-5332b749afcb",
  //    "Type": 1,
  //    "PostalCode": 25740,
  //    "Street": "Holy Cross",
  //    "HouseNumber": "428",
  //    "City": "Pasarnangka"
  //  },
  //  {
  //    "PersonId": "175f122c-e8a6-480f-82d3-0be6a2e84e59",
  //    "Type": 1,
  //    "PostalCode": 85176,
  //    "Street": "Bluejay",
  //    "HouseNumber": "33",
  //    "City": "Divača"
  //  },
  //  {
  //    "PersonId": "2e4f93a8-6caa-47b8-a333-b8f3d08eb006",
  //    "Type": 2,
  //    "PostalCode": 36801,
  //    "Street": "Stoughton",
  //    "HouseNumber": "84889",
  //    "City": "Socorro"
  //  },
  //  {
  //    "PersonId": "762979a7-7c7f-4c36-beb8-4907cf31e2c1",
  //    "Type": 1,
  //    "PostalCode": 18716,
  //    "Street": "Linden",
  //    "HouseNumber": "082",
  //    "City": "Gaoping"
  //  },
  //  {
  //    "PersonId": "57ac747d-596e-4caa-95e7-2faf944e31f5",
  //    "Type": 2,
  //    "PostalCode": 98929,
  //    "Street": "Milwaukee",
  //    "HouseNumber": "65378",
  //    "City": "Segodim"
  //  },
  //  {
  //    "PersonId": "1539f680-1fa3-4ef6-927a-04ebb8d9dfd9",
  //    "Type": 2,
  //    "PostalCode": 70608,
  //    "Street": "Meadow Ridge",
  //    "HouseNumber": "283",
  //    "City": "Promissão"
  //  },
  //  {
  //    "PersonId": "57990f47-201b-4fdf-8c96-4e55be6d580f",
  //    "Type": 2,
  //    "PostalCode": 88962,
  //    "Street": "Mcguire",
  //    "HouseNumber": "5",
  //    "City": "Ede"
  //  },
  //  {
  //    "PersonId": "a899bfe3-1e88-4bef-8d3d-c1050d648b6c",
  //    "Type": 2,
  //    "PostalCode": 60586,
  //    "Street": "Lighthouse Bay",
  //    "HouseNumber": "8",
  //    "City": "Nar'yan-Mar"
  //  },
  //  {
  //    "PersonId": "bbc5bde3-9daa-445b-bdf1-d69417a1b379",
  //    "Type": 1,
  //    "PostalCode": 89233,
  //    "Street": "Sage",
  //    "HouseNumber": "559",
  //    "City": "Bao’an"
  //  },
  //  {
  //    "PersonId": "2175dd9d-726b-4ad3-ba4a-481f6eef75a2",
  //    "Type": 2,
  //    "PostalCode": 45466,
  //    "Street": "Bluestem",
  //    "HouseNumber": "01843",
  //    "City": "Cucuyagua"
  //  },
  //  {
  //    "PersonId": "4393fbfb-a5fc-4a60-8fab-ed46e8d98264",
  //    "Type": 2,
  //    "PostalCode": 87860,
  //    "Street": "Iowa",
  //    "HouseNumber": "0",
  //    "City": "Nantes"
  //  },
  //  {
  //    "PersonId": "ae1a7516-9e50-41bf-a106-10b2d9c91fac",
  //    "Type": 1,
  //    "PostalCode": 66259,
  //    "Street": "Luster",
  //    "HouseNumber": "1824",
  //    "City": "Conel"
  //  },
  //  {
  //    "PersonId": "0050c98f-b5b9-477e-9277-b8e602164c34",
  //    "Type": 1,
  //    "PostalCode": 91547,
  //    "Street": "Vidon",
  //    "HouseNumber": "93",
  //    "City": "Foz do Iguaçu"
  //  },
  //  {
  //    "PersonId": "d90016a7-df7e-4160-ae14-85f573ccc097",
  //    "Type": 2,
  //    "PostalCode": 22364,
  //    "Street": "Anzinger",
  //    "HouseNumber": "9732",
  //    "City": "Bayeux"
  //  },
  //  {
  //    "PersonId": "94c1ca6e-5da8-4526-9e96-a12fb1254903",
  //    "Type": 2,
  //    "PostalCode": 81325,
  //    "Street": "Bluejay",
  //    "HouseNumber": "6089",
  //    "City": "Hājīganj"
  //  },
  //  {
  //    "PersonId": "df3946b3-98c3-442b-9249-bd7596f2c654",
  //    "Type": 1,
  //    "PostalCode": 63045,
  //    "Street": "Lawn",
  //    "HouseNumber": "1197",
  //    "City": "Uthai Thani"
  //  },
  //  {
  //    "PersonId": "ae84a825-dfb2-49ee-a04e-b0fff0346658",
  //    "Type": 2,
  //    "PostalCode": 60738,
  //    "Street": "Becker",
  //    "HouseNumber": "8944",
  //    "City": "Paris 12"
  //  },
  //  {
  //    "PersonId": "ecf94d49-1e6a-478d-9cc1-f345a1e6532b",
  //    "Type": 2,
  //    "PostalCode": 46108,
  //    "Street": "Sachs",
  //    "HouseNumber": "97878",
  //    "City": "Chipinge"
  //  },
  //  {
  //    "PersonId": "52333121-0894-482d-ba73-a7ece1a5d151",
  //    "Type": 2,
  //    "PostalCode": 54885,
  //    "Street": "Swallow",
  //    "HouseNumber": "348",
  //    "City": "Chruszczobród"
  //  },
  //  {
  //    "PersonId": "de1f8a00-a979-422d-adce-bafc8b1cd7a9",
  //    "Type": 2,
  //    "PostalCode": 25901,
  //    "Street": "Larry",
  //    "HouseNumber": "5",
  //    "City": "Komatsu"
  //  },
  //  {
  //    "PersonId": "217e75a9-27f9-4c1d-a04a-584e714f8c6c",
  //    "Type": 2,
  //    "PostalCode": 96561,
  //    "Street": "Ramsey",
  //    "HouseNumber": "24516",
  //    "City": "Umanday Centro"
  //  },
  //  {
  //    "PersonId": "7ec48c62-0c16-4407-ae05-7cb7e052c46a",
  //    "Type": 1,
  //    "PostalCode": 80087,
  //    "Street": "Veith",
  //    "HouseNumber": "2087",
  //    "City": "Digne-les-Bains"
  //  },
  //  {
  //    "PersonId": "48d36e52-2067-4f51-8ca7-05e442eb52c0",
  //    "Type": 2,
  //    "PostalCode": 43299,
  //    "Street": "Packers",
  //    "HouseNumber": "7",
  //    "City": "Cabucgayan"
  //  },
  //  {
  //    "PersonId": "42c37366-47ce-47a7-a432-44cbc1bb6040",
  //    "Type": 2,
  //    "PostalCode": 22578,
  //    "Street": "Vera",
  //    "HouseNumber": "48",
  //    "City": "Los Pinos"
  //  },
  //  {
  //    "PersonId": "f89826a5-ab9a-436c-a04d-09cfa2a96520",
  //    "Type": 1,
  //    "PostalCode": 57083,
  //    "Street": "Helena",
  //    "HouseNumber": "197",
  //    "City": "Simbal"
  //  },
  //  {
  //    "PersonId": "cd5fb9b4-ac02-4503-8aa4-9a8445c2335d",
  //    "Type": 1,
  //    "PostalCode": 60824,
  //    "Street": "7th",
  //    "HouseNumber": "397",
  //    "City": "Nkoteng"
  //  },
  //  {
  //    "PersonId": "74f69351-f62a-41b7-bb2c-22b25fd07d6b",
  //    "Type": 1,
  //    "PostalCode": 19970,
  //    "Street": "Crowley",
  //    "HouseNumber": "187",
  //    "City": "Huilong"
  //  },
  //  {
  //    "PersonId": "a01761a9-00a4-4a07-b177-aeb70ea40892",
  //    "Type": 2,
  //    "PostalCode": 97967,
  //    "Street": "Bay",
  //    "HouseNumber": "97",
  //    "City": "Jagistay"
  //  },
  //  {
  //    "PersonId": "83017ce2-ac4b-4634-a2a7-b97efb8566e6",
  //    "Type": 2,
  //    "PostalCode": 93178,
  //    "Street": "Fremont",
  //    "HouseNumber": "10",
  //    "City": "Zuogaimanma"
  //  },
  //  {
  //    "PersonId": "55416bc0-7f07-4499-87d3-52cf4c54a487",
  //    "Type": 1,
  //    "PostalCode": 12468,
  //    "Street": "Glendale",
  //    "HouseNumber": "18",
  //    "City": "Honiara"
  //  },
  //  {
  //    "PersonId": "a603ed6e-0621-438e-baa0-c6a36219336d",
  //    "Type": 2,
  //    "PostalCode": 63886,
  //    "Street": "Muir",
  //    "HouseNumber": "5",
  //    "City": "Dežanovac"
  //  },
  //  {
  //    "PersonId": "cdc35160-b9a7-4296-9bb0-8e6025560701",
  //    "Type": 2,
  //    "PostalCode": 87650,
  //    "Street": "Colorado",
  //    "HouseNumber": "46",
  //    "City": "Terpsithéa"
  //  },
  //  {
  //    "PersonId": "3b4cf177-ce3f-47ea-9ca5-322a96c595b5",
  //    "Type": 1,
  //    "PostalCode": 27312,
  //    "Street": "Northview",
  //    "HouseNumber": "1",
  //    "City": "San Martín de los Andes"
  //  },
  //  {
  //    "PersonId": "1990384c-1bb8-42b7-bd63-e1b3b89e00b0",
  //    "Type": 1,
  //    "PostalCode": 61681,
  //    "Street": "Algoma",
  //    "HouseNumber": "2",
  //    "City": "Si Somdet"
  //  },
  //  {
  //    "PersonId": "fec12745-9aea-4d80-8670-c2e862878468",
  //    "Type": 1,
  //    "PostalCode": 69731,
  //    "Street": "Hoffman",
  //    "HouseNumber": "5",
  //    "City": "Shuanggang"
  //  },
  //  {
  //    "PersonId": "ea238ce7-6b5d-4cf8-be76-7bc6ccc09aab",
  //    "Type": 2,
  //    "PostalCode": 73694,
  //    "Street": "Green",
  //    "HouseNumber": "9",
  //    "City": "Aţ Ţīrah"
  //  },
  //  {
  //    "PersonId": "8f02794d-7652-446d-9195-dc3f436ba6be",
  //    "Type": 1,
  //    "PostalCode": 72826,
  //    "Street": "Anthes",
  //    "HouseNumber": "67818",
  //    "City": "Mirsk"
  //  },
  //  {
  //    "PersonId": "7e5b6fbd-5909-4c55-a457-0c0f47aab3b2",
  //    "Type": 1,
  //    "PostalCode": 38265,
  //    "Street": "Brickson Park",
  //    "HouseNumber": "0812",
  //    "City": "Tanjungsari Barat"
  //  },
  //  {
  //    "PersonId": "12473b78-8082-47b7-9780-6f47f6d13b3b",
  //    "Type": 2,
  //    "PostalCode": 50938,
  //    "Street": "Hanover",
  //    "HouseNumber": "3932",
  //    "City": "Hanau"
  //  },
  //  {
  //    "PersonId": "f53096fe-a36a-41a7-83e2-c738b0d6f632",
  //    "Type": 1,
  //    "PostalCode": 78814,
  //    "Street": "Lakewood",
  //    "HouseNumber": "391",
  //    "City": "Cipancur"
  //  },
  //  {
  //    "PersonId": "e4001062-df9a-4e2f-b0b0-86fdab2505bf",
  //    "Type": 2,
  //    "PostalCode": 35474,
  //    "Street": "Shasta",
  //    "HouseNumber": "346",
  //    "City": "Bujaków"
  //  },
  //  {
  //    "PersonId": "5051a345-ae2c-4002-ad75-1d166c1ccf3d",
  //    "Type": 1,
  //    "PostalCode": 56772,
  //    "Street": "Springs",
  //    "HouseNumber": "73035",
  //    "City": "Saskylakh"
  //  }
]